[{"OBJECT_NAME":"TDRS 12","OBJECT_ID":"2014-004A","EPOCH":"2026-04-01T07:31:19.660800","MEAN_MOTION":1.00278566,"ECCENTRICITY":0.0003085,"INCLINATION":3.9034,"RA_OF_ASC_NODE":17.7614,"ARG_OF_PERICENTER":258.6063,"MEAN_ANOMALY":345.044,"EPHEMERIS_TYPE":0,"CLASSIFICATION_TYPE":"U","NORAD_CAT_ID":39504,"ELEMENT_SET_NO":999,"REV_AT_EPOCH":4350,"BSTAR":0,"MEAN_MOTION_DOT":-2.78e-6,"MEAN_MOTION_DDOT":0},{"OBJECT_NAME":"ABS-2","OBJECT_ID":"2014-006A","EPOCH":"2026-03-28T23:41:54.777984","MEAN_MOTION":1.00271778,"ECCENTRICITY":0.00029363,"INCLINATION":0.031,"RA_OF_ASC_NODE":92.6208,"ARG_OF_PERICENTER":274.8159,"MEAN_ANOMALY":249.3411,"EPHEMERIS_TYPE":0,"CLASSIFICATION_TYPE":"U","NORAD_CAT_ID":39508,"ELEMENT_SET_NO":999,"REV_AT_EPOCH":4447,"BSTAR":0,"MEAN_MOTION_DOT":-1.05e-6,"MEAN_MOTION_DDOT":0},{"OBJECT_NAME":"ATHENA-FIDUS","OBJECT_ID":"2014-006B","EPOCH":"2026-03-31T16:33:10.181088","MEAN_MOTION":1.0027188,"ECCENTRICITY":0.00014963,"INCLINATION":0.0343,"RA_OF_ASC_NODE":103.5759,"ARG_OF_PERICENTER":278.541,"MEAN_ANOMALY":93.0136,"EPHEMERIS_TYPE":0,"CLASSIFICATION_TYPE":"U","NORAD_CAT_ID":39509,"ELEMENT_SET_NO":999,"REV_AT_EPOCH":4431,"BSTAR":0,"MEAN_MOTION_DOT":1.42e-6,"MEAN_MOTION_DDOT":0},{"OBJECT_NAME":"TURKSAT 4A","OBJECT_ID":"2014-007A","EPOCH":"2026-04-01T02:00:38.751840","MEAN_MOTION":1.00271539,"ECCENTRICITY":0.0003884,"INCLINATION":0.0547,"RA_OF_ASC_NODE":292.1313,"ARG_OF_PERICENTER":25.7592,"MEAN_ANOMALY":303.6872,"EPHEMERIS_TYPE":0,"CLASSIFICATION_TYPE":"U","NORAD_CAT_ID":39522,"ELEMENT_SET_NO":999,"REV_AT_EPOCH":4419,"BSTAR":0,"MEAN_MOTION_DOT":1.35e-6,"MEAN_MOTION_DDOT":0},{"OBJECT_NAME":"EXPRESS-AT1","OBJECT_ID":"2014-010A","EPOCH":"2026-04-01T11:28:02.025408","MEAN_MOTION":1.00280909,"ECCENTRICITY":7.45e-5,"INCLINATION":0.0648,"RA_OF_ASC_NODE":83.9971,"ARG_OF_PERICENTER":357.7579,"MEAN_ANOMALY":336.5143,"EPHEMERIS_TYPE":0,"CLASSIFICATION_TYPE":"U","NORAD_CAT_ID":39612,"ELEMENT_SET_NO":999,"REV_AT_EPOCH":4404,"BSTAR":0,"MEAN_MOTION_DOT":6.5e-7,"MEAN_MOTION_DDOT":0},{"OBJECT_NAME":"EXPRESS-AT2","OBJECT_ID":"2014-010B","EPOCH":"2026-03-28T12:01:36.704064","MEAN_MOTION":1.00084267,"ECCENTRICITY":0.00154419,"INCLINATION":0.0335,"RA_OF_ASC_NODE":80.9118,"ARG_OF_PERICENTER":241.0203,"MEAN_ANOMALY":104.7585,"EPHEMERIS_TYPE":0,"CLASSIFICATION_TYPE":"U","NORAD_CAT_ID":39613,"ELEMENT_SET_NO":999,"REV_AT_EPOCH":4368,"BSTAR":0,"MEAN_MOTION_DOT":5.6e-7,"MEAN_MOTION_DDOT":0},{"OBJECT_NAME":"AMAZONAS 4A","OBJECT_ID":"2014-011A","EPOCH":"2026-04-01T10:50:50.590752","MEAN_MOTION":1.00272016,"ECCENTRICITY":0.0002186,"INCLINATION":0.0579,"RA_OF_ASC_NODE":160.9541,"ARG_OF_PERICENTER":212.2345,"MEAN_ANOMALY":265.3226,"EPHEMERIS_TYPE":0,"CLASSIFICATION_TYPE":"U","NORAD_CAT_ID":39616,"ELEMENT_SET_NO":999,"REV_AT_EPOCH":4394,"BSTAR":0,"MEAN_MOTION_DOT":-2.62e-6,"MEAN_MOTION_DDOT":0},{"OBJECT_NAME":"ASTRA 5B","OBJECT_ID":"2014-011B","EPOCH":"2026-04-01T06:10:32.473920","MEAN_MOTION":1.00271194,"ECCENTRICITY":0.0003498,"INCLINATION":0.0811,"RA_OF_ASC_NODE":302.8918,"ARG_OF_PERICENTER":45.2,"MEAN_ANOMALY":317.6376,"EPHEMERIS_TYPE":0,"CLASSIFICATION_TYPE":"U","NORAD_CAT_ID":39617,"ELEMENT_SET_NO":999,"REV_AT_EPOCH":4389,"BSTAR":0,"MEAN_MOTION_DOT":1.26e-6,"MEAN_MOTION_DDOT":0},{"OBJECT_NAME":"IRNSS-1B","OBJECT_ID":"2014-017A","EPOCH":"2026-04-01T11:27:47.048832","MEAN_MOTION":1.00280096,"ECCENTRICITY":0.0022046,"INCLINATION":29.0611,"RA_OF_ASC_NODE":241.7147,"ARG_OF_PERICENTER":181.2807,"MEAN_ANOMALY":354.0374,"EPHEMERIS_TYPE":0,"CLASSIFICATION_TYPE":"U","NORAD_CAT_ID":39635,"ELEMENT_SET_NO":999,"REV_AT_EPOCH":4402,"BSTAR":0,"MEAN_MOTION_DOT":8.0e-7,"MEAN_MOTION_DDOT":0},{"OBJECT_NAME":"LUCH-5V","OBJECT_ID":"2014-023A","EPOCH":"2026-04-01T11:38:53.483136","MEAN_MOTION":1.00271218,"ECCENTRICITY":0.0002684,"INCLINATION":4.9457,"RA_OF_ASC_NODE":70.4945,"ARG_OF_PERICENTER":310.6243,"MEAN_ANOMALY":78.1887,"EPHEMERIS_TYPE":0,"CLASSIFICATION_TYPE":"U","NORAD_CAT_ID":39727,"ELEMENT_SET_NO":999,"REV_AT_EPOCH":4359,"BSTAR":0,"MEAN_MOTION_DOT":-2.74e-6,"MEAN_MOTION_DDOT":0},{"OBJECT_NAME":"KAZSAT-3","OBJECT_ID":"2014-023B","EPOCH":"2026-04-01T11:28:31.976832","MEAN_MOTION":1.00272615,"ECCENTRICITY":2.68e-5,"INCLINATION":0.0521,"RA_OF_ASC_NODE":44.604,"ARG_OF_PERICENTER":54.4011,"MEAN_ANOMALY":321.4467,"EPHEMERIS_TYPE":0,"CLASSIFICATION_TYPE":"U","NORAD_CAT_ID":39728,"ELEMENT_SET_NO":999,"REV_AT_EPOCH":4168,"BSTAR":0,"MEAN_MOTION_DOT":5.1e-7,"MEAN_MOTION_DDOT":0},{"OBJECT_NAME":"EUTELSAT 3B","OBJECT_ID":"2014-030A","EPOCH":"2026-04-01T07:47:23.186688","MEAN_MOTION":1.00273451,"ECCENTRICITY":6.22e-5,"INCLINATION":0.0682,"RA_OF_ASC_NODE":351.1018,"ARG_OF_PERICENTER":108.9982,"MEAN_ANOMALY":209.5266,"EPHEMERIS_TYPE":0,"CLASSIFICATION_TYPE":"U","NORAD_CAT_ID":39773,"ELEMENT_SET_NO":999,"REV_AT_EPOCH":4329,"BSTAR":0,"MEAN_MOTION_DOT":1.0e-7,"MEAN_MOTION_DDOT":0},{"OBJECT_NAME":"ASIASAT 8 (AMOS-7)","OBJECT_ID":"2014-046A","EPOCH":"2026-04-01T11:42:00.684288","MEAN_MOTION":1.0027245,"ECCENTRICITY":0.0001515,"INCLINATION":0.0436,"RA_OF_ASC_NODE":86.7963,"ARG_OF_PERICENTER":278.1757,"MEAN_ANOMALY":105.6861,"EPHEMERIS_TYPE":0,"CLASSIFICATION_TYPE":"U","NORAD_CAT_ID":40107,"ELEMENT_SET_NO":999,"REV_AT_EPOCH":10138,"BSTAR":0,"MEAN_MOTION_DOT":-3.42e-6,"MEAN_MOTION_DDOT":0},{"OBJECT_NAME":"ASIASAT 6","OBJECT_ID":"2014-052A","EPOCH":"2026-04-01T11:46:07.789152","MEAN_MOTION":1.00272544,"ECCENTRICITY":0.0001026,"INCLINATION":0.0168,"RA_OF_ASC_NODE":249.3067,"ARG_OF_PERICENTER":141.185,"MEAN_ANOMALY":95.7884,"EPHEMERIS_TYPE":0,"CLASSIFICATION_TYPE":"U","NORAD_CAT_ID":40141,"ELEMENT_SET_NO":999,"REV_AT_EPOCH":4231,"BSTAR":0,"MEAN_MOTION_DOT":-3.71e-6,"MEAN_MOTION_DDOT":0},{"OBJECT_NAME":"OPTUS 10","OBJECT_ID":"2014-054A","EPOCH":"2026-03-31T12:06:32.778720","MEAN_MOTION":1.00270875,"ECCENTRICITY":0.00020481,"INCLINATION":0.1242,"RA_OF_ASC_NODE":348.4341,"ARG_OF_PERICENTER":25.8278,"MEAN_ANOMALY":152.2448,"EPHEMERIS_TYPE":0,"CLASSIFICATION_TYPE":"U","NORAD_CAT_ID":40146,"ELEMENT_SET_NO":999,"REV_AT_EPOCH":4225,"BSTAR":0,"MEAN_MOTION_DOT":-1.61e-6,"MEAN_MOTION_DDOT":0},{"OBJECT_NAME":"MEASAT-3B","OBJECT_ID":"2014-054B","EPOCH":"2026-04-01T11:38:01.066848","MEAN_MOTION":1.00271542,"ECCENTRICITY":0.0003198,"INCLINATION":0.0529,"RA_OF_ASC_NODE":50.3404,"ARG_OF_PERICENTER":343.6931,"MEAN_ANOMALY":61.8307,"EPHEMERIS_TYPE":0,"CLASSIFICATION_TYPE":"U","NORAD_CAT_ID":40147,"ELEMENT_SET_NO":999,"REV_AT_EPOCH":4214,"BSTAR":0,"MEAN_MOTION_DOT":-2.51e-6,"MEAN_MOTION_DDOT":0},{"OBJECT_NAME":"HIMAWARI-8","OBJECT_ID":"2014-060A","EPOCH":"2026-04-01T10:13:57.821088","MEAN_MOTION":1.00271458,"ECCENTRICITY":8.5e-5,"INCLINATION":0.0032,"RA_OF_ASC_NODE":183.4361,"ARG_OF_PERICENTER":199.1742,"MEAN_ANOMALY":101.3105,"EPHEMERIS_TYPE":0,"CLASSIFICATION_TYPE":"U","NORAD_CAT_ID":40267,"ELEMENT_SET_NO":999,"REV_AT_EPOCH":4199,"BSTAR":0,"MEAN_MOTION_DOT":-2.85e-6,"MEAN_MOTION_DDOT":0}]
