TDRS 12                 
1 39504U 14004A   26091.31342200 -.00000278  00000+0  00000+0 0  9999
2 39504   3.9034  17.7614 0003085 258.6063 345.0440  1.00278566 43501
ABS-2                   
1 39508U 14006A   26087.98743956 -.00000105  00000+0  00000+0 0  9995
2 39508   0.0310  92.6208 0002936 274.8159 249.3411  1.00271778 44470
ATHENA-FIDUS            
1 39509U 14006B   26090.68970117  .00000142  00000+0  00000+0 0  9998
2 39509   0.0343 103.5759 0001496 278.5410  93.0136  1.00271880 44316
TURKSAT 4A              
1 39522U 14007A   26091.08378185  .00000135  00000+0  00000+0 0  9998
2 39522   0.0547 292.1313 0003884  25.7592 303.6872  1.00271539 44198
EXPRESS-AT1             
1 39612U 14010A   26091.47780122  .00000065  00000+0  00000+0 0  9995
2 39612   0.0648  83.9971 0000745 357.7579 336.5143  1.00280909 44043
EXPRESS-AT2             
1 39613U 14010B   26087.50111926  .00000056  00000+0  00000+0 0  9995
2 39613   0.0335  80.9118 0015441 241.0203 104.7585  1.00084267 43688
AMAZONAS 4A             
1 39616U 14011A   26091.45197443 -.00000262  00000+0  00000+0 0  9996
2 39616   0.0579 160.9541 0002186 212.2345 265.3226  1.00272016 43945
ASTRA 5B                
1 39617U 14011B   26091.25732030  .00000126  00000+0  00000+0 0  9990
2 39617   0.0811 302.8918 0003498  45.2000 317.6376  1.00271194 43896
IRNSS-1B                
1 39635U 14017A   26091.47762788  .00000080  00000+0  00000+0 0  9992
2 39635  29.0611 241.7147 0022046 181.2807 354.0374  1.00280096 44026
LUCH-5V                 
1 39727U 14023A   26091.48534124 -.00000274  00000+0  00000+0 0  9999
2 39727   4.9457  70.4945 0002684 310.6243  78.1887  1.00271218 43599
KAZSAT-3                
1 39728U 14023B   26091.47814788  .00000051  00000+0  00000+0 0  9998
2 39728   0.0521  44.6040 0000268  54.4011 321.4467  1.00272615 41688
EUTELSAT 3B             
1 39773U 14030A   26091.32457392  .00000010  00000+0  00000+0 0  9999
2 39773   0.0682 351.1018 0000622 108.9982 209.5266  1.00273451 43294
ASIASAT 8 (AMOS-7)      
1 40107U 14046A   26091.48750792 -.00000342  00000+0  00000+0 0  9995
2 40107   0.0436  86.7963 0001515 278.1757 105.6861  1.00272450101386
ASIASAT 6               
1 40141U 14052A   26091.49036793 -.00000371  00000+0  00000+0 0  9991
2 40141   0.0168 249.3067 0001026 141.1850  95.7884  1.00272544 42313
OPTUS 10                
1 40146U 14054A   26090.50454605 -.00000161  00000+0  00000+0 0  9992
2 40146   0.1242 348.4341 0002048  25.8278 152.2448  1.00270875 42258
MEASAT-3B               
1 40147U 14054B   26091.48473457 -.00000251  00000+0  00000+0 0  9997
2 40147   0.0529  50.3404 0003198 343.6931  61.8307  1.00271542 42148
HIMAWARI-8              
1 40267U 14060A   26091.42636367 -.00000285  00000+0  00000+0 0  9999
2 40267   0.0032 183.4361 0000850 199.1742 101.3105  1.00271458 41990
